OBJECT_NAME,OBJECT_ID,EPOCH,MEAN_MOTION,ECCENTRICITY,INCLINATION,RA_OF_ASC_NODE,ARG_OF_PERICENTER,MEAN_ANOMALY,EPHEMERIS_TYPE,CLASSIFICATION_TYPE,NORAD_CAT_ID,ELEMENT_SET_NO,REV_AT_EPOCH,BSTAR,MEAN_MOTION_DOT,MEAN_MOTION_DDOT
KUZGTU 1 (RS47S),2023-091AV,2026-06-22T20:31:27.350688,15.29966775,.00121517,97.5062,238.3931,80.6365,279.6249,0,U,57217,999,16524,.32648207E-3,.9416E-4,0
SONATE-2,2024-043Q,2026-06-22T20:25:46.464672,15.59094291,.00072798,97.5538,324.5963,176.8356,183.2948,0,U,59112,999,12877,.42100728E-3,.32866E-3,0
MESAT1,2024-125G,2026-06-22T13:07:04.758240,15.63717946,.00101031,97.2291,31.1529,184.2712,175.8463,0,U,60209,999,11040,.49841142E-3,.46646E-3,0
OOV-CUBE (TUBSAT-30),2024-128F,2026-06-22T13:52:34.680288,15.02789334,.00439627,61.9926,206.7746,134.9443,225.5227,0,U,60240,999,10692,.1001519E-3,.1157E-4,0
COLIBRI-S (RS67S),2024-199M,2026-06-22T19:34:29.348544,15.47922194,.0006361,97.2992,47.7211,250.9303,109.1259,0,U,61746,999,13828,.33759042E-3,.1753E-3,0
HORS 3 (RS81S),2024-199U,2026-06-22T19:35:23.017632,15.55309120,.00039515,97.2972,49.7698,244.0660,116.0188,0,U,61753,999,13843,.44564244E-3,.30192E-3,0
HORS 4 (RS82S),2024-199V,2026-06-22T19:46:15.697056,15.60145328,.00037304,97.2918,51.0157,225.6437,134.4514,0,U,61754,999,13852,.52182496E-3,.42435E-3,0
SIT-2086,2024-199AF,2026-06-22T19:13:53.976288,15.53422884,.00052554,97.2932,50.2113,223.8340,136.2497,0,U,61764,999,13530,.46160193E-3,.29205E-3,0
HYPERVIEW 1G (RS66S),2024-199AP,2026-06-22T18:36:23.489568,15.77238828,.00051167,97.2865,53.7817,197.7492,162.3597,0,U,61772,999,13555,.78326525E-3,.129662E-2,0
ALTAIR (RS65S),2024-199AW,2026-06-22T20:10:57.085536,15.37103389,.00107917,97.3028,43.1543,287.6710,72.3356,0,U,61779,999,13798,.22736564E-3,.819E-4,0
ASRTU-1 (AO-123),2024-199AY,2026-06-22T20:00:41.059584,15.35742963,.00119809,97.2999,42.4534,290.9998,68.9964,0,U,61781,999,13479,.16840412E-3,.5786E-4,0
SAMSAT-IONOSPHERE (RS75S),2024-199BB,2026-06-22T20:10:18.949440,15.58061687,.00061801,97.2941,49.8618,247.2078,112.8525,0,U,61784,999,13844,.51234978E-3,.38513E-3,0
RTU MIREA 1 (RS51S),2024-199BC,2026-06-22T20:27:09.395712,15.61628409,.00060123,97.2929,50.7352,238.5143,121.5528,0,U,61785,999,13535,.53673831E-3,.46246E-3,0
TEVEL2-4,2025-052D,2026-06-21T16:20:53.152800,15.34745367,.00049651,97.3895,69.0801,94.6694,265.5117,0,U,63213,999,7080,.42940989E-3,.14398E-3,0
TEVEL2-5,2025-052E,2026-06-22T10:04:00.784992,15.34589962,.00048894,97.3894,69.7659,94.7236,265.4565,0,U,63214,999,7091,.41120987E-3,.13715E-3,0
TEVEL2-6,2025-052F,2026-06-22T05:40:14.649024,15.34550217,.00047576,97.3899,69.5668,95.5111,264.6675,0,U,63215,999,7088,.41840655E-3,.13939E-3,0
TEVEL2-1,2025-052H,2026-06-21T16:19:11.133408,15.33994869,.00049053,97.3870,68.6292,104.4145,255.7643,0,U,63217,999,7078,.41431826E-3,.13561E-3,0
TEVEL2-3,2025-052J,2026-06-22T04:42:40.333824,15.34065187,.0004858,97.3873,69.1678,103.9663,256.2121,0,U,63218,999,7086,.41869374E-3,.13736E-3,0
TEVEL2-2,2025-052K,2026-06-22T06:24:59.446080,15.34020096,.00049036,97.3874,69.2190,103.8133,256.3656,0,U,63219,999,7087,.42061815E-3,.1378E-3,0
TEVEL2-9,2025-052AD,2026-06-22T10:44:06.917856,15.32032450,.00081841,97.3936,68.7627,116.4765,243.7317,0,U,63237,999,7083,.40512714E-3,.12471E-3,0
TEVEL2-7,2025-052AE,2026-06-22T05:28:11.917344,15.31728224,.00082256,97.3939,68.4578,117.2661,242.9419,0,U,63238,999,7079,.38496579E-3,.11733E-3,0
TEVEL2-8,2025-052AF,2026-06-22T16:38:39.780672,15.31724980,.00082493,97.3936,68.8989,116.5342,243.6747,0,U,63239,999,7086,.39165736E-3,.11938E-3,0
INNOSAT 16 (RS92S7),2025-155C,2026-06-22T20:09:37.877472,15.25506710,.0011201,97.4563,140.9496,156.4610,203.7143,0,U,64878,999,8153,.18059414E-3,.4509E-4,0
GEOSCAN 6 (RS92S6),2025-155D,2026-06-22T19:19:46.083936,15.30238301,.00090093,97.4556,142.3789,144.8057,215.3780,0,U,64879,999,8162,.24990417E-3,.7242E-4,0
GEOSCAN 1 (RS92S1),2025-155E,2026-06-22T19:20:07.843776,15.30843580,.00089572,97.4553,142.5320,144.6223,215.5614,0,U,64880,999,8163,.29711644E-3,.8789E-4,0
239ALFEROV (RS61S),2025-155F,2026-06-22T19:58:46.000704,15.33067874,.00086786,97.4553,143.1395,142.2917,217.8935,0,U,64881,999,8167,.34568495E-3,.10979E-3,0
GEOSCAN 2 (RS92S2),2025-155Q,2026-06-22T19:09:36.208800,15.31114407,.00086651,97.4552,142.6794,133.0504,227.1464,0,U,64890,999,8164,.29217968E-3,.8715E-4,0
GEOSCAN 5 (RS92S5),2025-155R,2026-06-22T19:41:16.918080,15.33385333,.00074631,97.4545,143.2669,145.7462,214.4263,0,U,64891,999,8168,.34596133E-3,.11095E-3,0
GEOSCAN 4 (RS92S4),2025-155S,2026-06-22T19:17:41.993664,15.33541520,.0007533,97.4548,143.3003,145.2712,214.9023,0,U,64892,999,8168,.37437388E-3,.12074E-3,0
GEOSCAN 3 (RS92S3),2025-155T,2026-06-22T19:08:16.296576,15.35552038,.00074924,97.4537,143.7397,143.9134,216.2616,0,U,64893,999,8171,.41318202E-3,.14218E-3,0
